CUTE-1 (CO-55)          
1 27844U 03031E   25048.53184522  .00000777  00000+0  35866-3 0  9992
2 27844  98.6793  58.2449 0010285 147.3570 212.8246 14.23823679122728
CUBESAT XI-IV (CO-57)   
1 27848U 03031J   25048.00686881  .00000643  00000+0  30392-3 0  9994
2 27848  98.6823  57.8155 0009840 164.8005 195.3470 14.23182861122407
CUBESAT XI-V            
1 28895U 05043F   25047.64547501  .00003858  00000+0  64831-3 0  9992
2 28895  98.2299 190.7633 0014055 306.7137  53.2776 14.70173640 30347
CUTE-1.7+APD II (CO-65) 
1 32785U 08021C   25047.86601372  .00011177  00000+0  85052-3 0  9996
2 32785  97.7710  18.4412 0009238 230.1688 129.8724 15.02247105912213
AAUSAT-II               
1 32788U 08021F   25047.93341188  .00113020  00000+0  21091-2 0  9995
2 32788  97.6075  39.7441 0006499  75.2612 284.9358 15.48353358915844
CANX-2                  
1 32790U 08021H   25047.83888867  .00008207  00000+0  66526-3 0  9990
2 32790  97.7982  16.9731 0010973 222.5635 137.4739 14.99907499911902
SEEDS II (CO-66)        
1 32791U 08021J   25047.88710142  .00023109  00000+0  12726-2 0  9996
2 32791  97.7198  25.8379 0004540 161.4820 198.6577 15.14020756913494
SWISSCUBE               
1 35932U 09051B   25047.63624571  .00002572  00000+0  53664-3 0  9991
2 35932  98.4434 301.7157 0005827 287.2180  72.8382 14.60790326818263
BEESAT-1                
1 35933U 09051C   25047.63643649  .00002169  00000+0  45926-3 0  9993
2 35933  98.4364 302.2652 0004373 304.8377  55.2411 14.60285115818365
ITUPSAT1                
1 35935U 09051E   25048.17869149  .00002233  00000+0  48440-3 0  9996
2 35935  98.4461 302.4469 0006726 308.9216  51.1383 14.59123665818007
TISAT 1                 
1 36799U 10035E   25048.48769708  .00022689  00000+0  13149-2 0  9997
2 36799  98.0661 315.8799 0005368 109.0605 251.1206 15.12193656794209
AEROCUBE 4.5A           
1 38767U 12048K   25047.95995304  .00030478  00000+0  10198-2 0  9990
2 38767  64.6487 238.7662 0107317 304.1569  54.9417 15.25413060297598
AEROCUBE 4.5B           
1 38768U 12048L   25048.19382963  .00418911  66771-4  18938-2 0  9993
2 38768  64.6328 128.9695 0043829 301.5368  58.1510 15.82185671299267
STRAND-1                
1 39090U 13009E   25048.48227714  .00000874  00000+0  31132-3 0  9999
2 39090  98.3797 236.1253 0007886 236.1202 123.9235 14.36642463627473
BRITE-AUSTRIA           
1 39091U 13009F   25048.10164221  .00000536  00000+0  19818-3 0  9994
2 39091  98.3850 235.0227 0009248 246.1276 113.8942 14.36190823627425
NEE-01 PEGASO           
1 39151U 13018B   25048.32182398  .00006387  00000+0  67552-3 0  9998
2 39151  98.0557 174.8754 0013287 321.3336  38.6928 14.89489425638426
ESTCUBE 1               
1 39161U 13021C   25048.40649003  .00004570  00000+0  62595-3 0  9997
2 39161  97.7959 113.4163 0009369 148.4040 211.7736 14.78916688633349
POPACS 1                
1 39268U 13055D   25048.51286625  .00065370  10566-6  76324-3 0  9996
2 39268  80.9743 223.3421 0298250   5.6238 354.8213 15.22773637598953
POPACS 2                
1 39269U 13055E   25047.50624829  .00024279  00000+0  50558-3 0  9996
2 39269  81.0018 331.5986 0497093 290.8239  64.0407 14.70290684591321
POPACS 3                
1 39270U 13055F   25047.65959106  .00011140  00000+0  28626-3 0  9997
2 39270  81.0064  31.2330 0599496  97.1462 269.8249 14.44313710568169
ZACUBE-1 (TSHEPISOSAT)  
1 39417U 13066B   25047.93599950  .00010442  00000+0  94835-3 0  9999
2 39417  97.7671   5.7878 0047699  69.0559 291.5756 14.94575663608073
WNISAT-1                
1 39423U 13066H   25047.95774257  .00001593  00000+0  30578-3 0  9994
2 39423  97.6689 228.6510 0165907 320.2460  38.6677 14.56585568596052
TRITON-1                
1 39427U 13066M   25048.46982035  .00008347  00000+0  10805-2 0  9994
2 39427  97.8405 325.1517 0097076  11.1313 349.2014 14.77808432602581
DELFI-N3XT              
1 39428U 13066N   25047.73082971  .00015879  00000+0  17116-2 0  9994
2 39428  97.8377 326.8431 0089971  12.9640 347.3858 14.85533562602303
GOMX-1                  
1 39430U 13066Q   25048.51264310  .00004686  00000+0  74191-3 0  9994
2 39430  97.6988 274.0012 0133831 190.3864 169.4572 14.66824955598976
CUBEBUG-2 (LO-74)       
1 39440U 13066AA  25048.40086918  .00008532  00000+0  89667-3 0  9997
2 39440  97.8392 353.9467 0063772 188.0910 171.9284 14.88185756605948
NEE-02 KRYSAOR          
1 39441U 13066AB  25047.77353002  .00004918  00000+0  58266-3 0  9993
2 39441  97.8466 347.9540 0069166 217.8727 141.7611 14.83293817604150
FUNCUBE-1 (AO-73)       
1 39444U 13066AE  25048.49176455  .00016825  00000+0  13539-2 0  9994
2 39444  97.7507  10.3938 0043350  45.1296 315.3434 14.99293499607361
UWE-3                   
1 39446U 13066AG  25048.41432119  .00009520  00000+0  93793-3 0  9995
2 39446  97.8123   0.1834 0056846 129.4811 231.1454 14.91031208605773
BRITE-CA1 (TORONTO)     
1 40020U 14033L   25048.43399911  .00002438  00000+0  38474-3 0  9990
2 40020  97.9057 183.7203 0081382  29.1897 331.3822 14.71087956571011
DUCHIFAT-1              
1 40021U 14033M   25047.95310290  .00034033  00000+0  15182-2 0  9996
2 40021  98.1022  53.0630 0009520   2.2723 357.8552 15.21278336581153
NANOSATC-BR1            
1 40024U 14033Q   25047.96129580  .00022484  00000+0  12502-2 0  9990
2 40024  98.0882  38.4567 0007635  72.5556 287.6508 15.13671436580142
QB50P1                  
1 40025U 14033R   25047.89373289  .00015997  00000+0  10600-2 0  9998
2 40025  98.0731  24.5304 0013451  79.5845 280.6896 15.07315040579647
QB50P2                  
1 40032U 14033Y   25048.17654834  .00015069  00000+0  10493-2 0  9996
2 40032  98.0330  14.6696 0010018  32.6829 327.5014 15.05516453579969
PERSEUS-M2              
1 40037U 14033AD  25048.47437379  .00004003  00000+0  39106-3 0  9996
2 40037  97.9464 346.7891 0014061 103.5165 256.7622 14.92892985578890
PERSEUS-M1              
1 40039U 14033AF  25048.52464155  .00003980  00000+0  38960-3 0  9996
2 40039  97.9223 342.1596 0013862 102.3563 257.9209 14.92820374578767
POLYITAN-1              
1 40042U 14033AJ  25047.92668079  .00023889  00000+0  13327-2 0  9993
2 40042  98.0976  30.6274 0012190  38.5292 321.6806 15.13502017579715
TIGRISAT                
1 40043U 14033AK  25048.02329514  .00005761  00000+0  71777-3 0  9997
2 40043  97.7179 207.0924 0051802 223.7382 135.9723 14.81885294573982
AEROCUBE 6A             
1 40045U 14033AM  25047.94239203  .00014303  00000+0  14650-2 0  9992
2 40045  97.6810 219.0798 0044805 193.7670 166.2330 14.89835680574151
AEROCUBE 6B             
1 40046U 14033AN  25048.42480997  .00016111  00000+0  16063-2 0  9994
2 40046  97.6791 218.5175 0043453 186.0728 173.9969 14.90928641574683
CANX-4                  
1 40055U 14034C   25048.52412235  .00002843  00000+0  38527-3 0  9993
2 40055  98.3753 259.5647 0014006 123.5671 236.6879 14.79715776572846
CANX-5                  
1 40056U 14034D   25047.85131193  .00002437  00000+0  33142-3 0  9997
2 40056  98.3756 258.8795 0013991 125.7825 234.4688 14.79723196563527
UKUBE-1                 
1 40074U 14037F   25048.39835637  .00018003  00000+0  13737-2 0  9997
2 40074  98.3838   1.2607 0002620  57.2995 302.8480 15.02068140575480
BRITE-PL2 (HEWELIUSZ)   
1 40119U 14049B   25047.76207216  .00004969  00000+0  50002-3 0  9999
2 40119  97.8830 152.8901 0013751 278.3132  81.6527 14.91591464569004
AEROCUBE 5C             
1 40965U 15058B   25048.16356556  .00006239  00000+0  52953-3 0  9995
2 40965  64.7704 327.1755 0179884 235.0222 123.3887 14.87050338293406
AEROCUBE 7              
1 40966U 15058C   25048.46327196  .00008039  00000+0  64098-3 0  9990
2 40966  64.7664 317.1786 0172705 234.6796 123.8066 14.89915348293600
FOX-1A (AO-85)          
1 40967U 15058D   25048.18301504  .00006309  00000+0  54813-3 0  9997
2 40967  64.7782 341.8704 0176888 230.5308 128.0043 14.86541179 41355
SINOD-D 1               
1 40968U 15058E   25048.20085885  .00009148  00000+0  73998-3 0  9991
2 40968  64.7784 331.5642 0168164 229.5063 129.1294 14.89813701 44246
SNAP-3 ALICE            
1 40970U 15058G   25048.01636248  .00030979  00000+0  15015-2 0  9999
2 40970  64.7640 269.4260 0117638 228.1506 130.9530 15.12436035 42599
LMRST-SAT               
1 40971U 15058H   25047.90356875  .00005874  00000+0  51072-3 0  9992
2 40971  64.7782 338.3508 0178838 232.0173 126.4671 14.86364828 41316
SNAP-3 EDDIE            
1 40972U 15058J   25047.69752687  .00029625  00000+0  14214-2 0  9996
2 40972  64.7606 263.3092 0117876 229.2467 129.8379 15.12768460 44658
PROPCUBE 3              
1 40973U 15058K   25047.91106872  .00007355  00000+0  60062-3 0  9990
2 40973  64.7711 323.4528 0174199 233.5943 124.8997 14.88957755 42407
BISONSAT                
1 40974U 15058L   25047.90745082  .00017017  00000+0  10578-2 0  9994
2 40974  64.7637 286.2513 0143106 231.4291 127.3936 15.01582608 42376
SNAP-3 JIMI             
1 40975U 15058M   25048.13538315  .00010648  00000+0  77898-3 0  9992
2 40975  64.7678 305.9862 0161165 232.5643 126.0717 14.94121265 41535
PROPCUBE 1 (FLORA)      
1 40976U 15058N   25048.16802884  .00006186  00000+0  55735-3 0  9999
2 40976  64.7776 354.3968 0178015 233.4352 125.0262 14.85086530 44126
SINOD-D 3               
1 40977U 15058P   25047.93741465  .00007905  00000+0  66590-3 0  9992
2 40977  64.7756 345.3863 0169310 232.7774 125.7787 14.88328230 42381
HORYU-4                 
1 41340U 16012D   25048.40608603  .00033694  00000+0  11295-2 0  9992
2 41340  30.9990 162.5701 0006065 344.6122  15.4337 15.29698485495553
RAVAN                   
1 41849U 16067B   25047.49393416  .00025576  00000+0  10133-2 0  9997
2 41849  98.0547 247.4726 0009780 272.2081  87.8035 15.25358901453078
CELTEE 1                
1 41850U 16067C   25048.45149185  .00011903  00000+0  68867-3 0  9995
2 41850  98.1091 237.8630 0001936  82.7810 277.3639 15.12422100452424
